FLOCK 4H-15             
1 66718U 25276BE  26188.19735646  .00004744  00000+0  22460-3 0  9991
2 66718  97.4210 261.3570 0002915 320.3062  39.7959 15.19815772 33453
FLOCK 4H-16             
1 66719U 25276BF  26188.43478216  .00005179  00000+0  24302-3 0  9996
2 66719  97.4226 261.6963 0002774 300.3750  59.7211 15.20083801 33494
FLOCK 4H-18             
1 66721U 25276BH  26188.44065157  .00004731  00000+0  22262-3 0  9992
2 66721  97.4166 261.5222 0002674 336.5902  23.5211 15.20025762 33497
FLOCK 4H-19             
1 66722U 25276BJ  26188.51179754  .00003745  00000+0  17085-3 0  9991
2 66722  97.4167 262.0408 0001741 163.5818 196.5474 15.21228120 32821
FLOCK 4H-20             
1 66723U 25276BK  26187.72546926  .00004893  00000+0  22136-3 0  9991
2 66723  97.4205 261.3663 0002019 195.8577 164.2596 15.21374077 32661
FLOCK 4H-21             
1 66724U 25276BL  26188.41242758  .00005290  00000+0  24188-3 0  9996
2 66724  97.4172 261.8757 0001908 193.3764 166.7421 15.20967311 32764
FLOCK 4H-22             
1 66725U 25276BM  26188.45436883  .00004822  00000+0  22409-3 0  9999
2 66725  97.4161 261.6346 0001533 350.5487   9.5719 15.20452010 33500
FLOCK 4H-23             
1 66726U 25276BN  26188.43987980  .00004673  00000+0  22007-3 0  9995
2 66726  97.4228 261.7027 0002819 287.9382  72.1545 15.20004602 33498
FLOCK 4H-24             
1 66727U 25276BP  26188.16191459  .00005507  00000+0  25801-3 0  9996
2 66727  97.4226 261.4575 0002538 313.9555  46.1470 15.20109054 33453
FLOCK 4H-25             
1 66728U 25276BQ  26188.43046383  .00004279  00000+0  19679-3 0  9993
2 66728  97.4182 261.8845 0001487 129.6522 230.4845 15.20880470 32795
FLOCK 4H-26             
1 66729U 25276BR  26188.52308175  .00004009  00000+0  19016-3 0  9990
2 66729  97.4180 261.6027 0003256 306.1206  53.9728 15.19837873 33506
FLOCK 4H-27             
1 66730U 25276BS  26187.99957098  .00005219  00000+0  24056-3 0  9990
2 66730  97.4157 261.3183 0001178 121.8444 238.2906 15.20698974 33447
FLOCK 4H-29             
1 66732U 25276BU  26188.17415419  .00004849  00000+0  22845-3 0  9991
2 66732  97.4158 261.2426 0002083 336.0314  24.0824 15.19973391 33459
FLOCK 4H-30             
1 66733U 25276BV  26188.43001542  .00005097  00000+0  23910-3 0  9999
2 66733  97.4221 261.6937 0002795 309.6398  50.4591 15.20099322 33493
FLOCK 4H-31             
1 66734U 25276BW  26187.72564820  .00004853  00000+0  22934-3 0  9998
2 66734  97.4158 260.7702 0002418 329.8198  30.2898 15.19871272 33381
FLOCK 4H-32             
1 66735U 25276BX  26188.43836861  .00004479  00000+0  21111-3 0  9995
2 66735  97.4212 261.6596 0003083 304.7988  55.2956 15.19996590 33497
