{"fetched_at":"2026-07-07T18:29:08.171Z","source":"https://celestrak.org/NORAD/elements/gp.php?GROUP=planet&FORMAT=JSON","constellation":"superdove","records":[{"OBJECT_NAME":"FLOCK 4H-15","OBJECT_ID":"2025-276BE","EPOCH":"2026-07-07T04:44:11.598144","CLASSIFICATION_TYPE":"U","MEAN_MOTION":15.19815772,"ECCENTRICITY":0.0002916,"INCLINATION":97.421,"RA_OF_ASC_NODE":261.357,"ARG_OF_PERICENTER":320.3062,"MEAN_ANOMALY":39.7959,"EPHEMERIS_TYPE":0,"NORAD_CAT_ID":66718,"ELEMENT_SET_NO":999,"REV_AT_EPOCH":3345,"BSTAR":0.0002246,"MEAN_MOTION_DOT":0.00004744,"MEAN_MOTION_DDOT":0},{"OBJECT_NAME":"FLOCK 4H-16","OBJECT_ID":"2025-276BF","EPOCH":"2026-07-07T10:26:05.177760","CLASSIFICATION_TYPE":"U","MEAN_MOTION":15.20083801,"ECCENTRICITY":0.0002774,"INCLINATION":97.4226,"RA_OF_ASC_NODE":261.6963,"ARG_OF_PERICENTER":300.375,"MEAN_ANOMALY":59.7211,"EPHEMERIS_TYPE":0,"NORAD_CAT_ID":66719,"ELEMENT_SET_NO":999,"REV_AT_EPOCH":3349,"BSTAR":0.00024302,"MEAN_MOTION_DOT":0.00005179,"MEAN_MOTION_DDOT":0},{"OBJECT_NAME":"FLOCK 4H-18","OBJECT_ID":"2025-276BH","EPOCH":"2026-07-07T10:34:32.294784","CLASSIFICATION_TYPE":"U","MEAN_MOTION":15.20025761,"ECCENTRICITY":0.0002674,"INCLINATION":97.4166,"RA_OF_ASC_NODE":261.5222,"ARG_OF_PERICENTER":336.5902,"MEAN_ANOMALY":23.5211,"EPHEMERIS_TYPE":0,"NORAD_CAT_ID":66721,"ELEMENT_SET_NO":999,"REV_AT_EPOCH":3349,"BSTAR":0.00022262,"MEAN_MOTION_DOT":0.00004731,"MEAN_MOTION_DDOT":0},{"OBJECT_NAME":"FLOCK 4H-19","OBJECT_ID":"2025-276BJ","EPOCH":"2026-07-07T12:16:59.306592","CLASSIFICATION_TYPE":"U","MEAN_MOTION":15.2122812,"ECCENTRICITY":0.0001741,"INCLINATION":97.4167,"RA_OF_ASC_NODE":262.0408,"ARG_OF_PERICENTER":163.5818,"MEAN_ANOMALY":196.5474,"EPHEMERIS_TYPE":0,"NORAD_CAT_ID":66722,"ELEMENT_SET_NO":999,"REV_AT_EPOCH":3282,"BSTAR":0.00017085,"MEAN_MOTION_DOT":0.00003745,"MEAN_MOTION_DDOT":0},{"OBJECT_NAME":"FLOCK 4H-20","OBJECT_ID":"2025-276BK","EPOCH":"2026-07-06T17:24:40.544064","CLASSIFICATION_TYPE":"U","MEAN_MOTION":15.21374077,"ECCENTRICITY":0.0002019,"INCLINATION":97.4205,"RA_OF_ASC_NODE":261.3663,"ARG_OF_PERICENTER":195.8577,"MEAN_ANOMALY":164.2596,"EPHEMERIS_TYPE":0,"NORAD_CAT_ID":66723,"ELEMENT_SET_NO":999,"REV_AT_EPOCH":3266,"BSTAR":0.00022136,"MEAN_MOTION_DOT":0.00004893,"MEAN_MOTION_DDOT":0},{"OBJECT_NAME":"FLOCK 4H-21","OBJECT_ID":"2025-276BL","EPOCH":"2026-07-07T09:53:53.742048","CLASSIFICATION_TYPE":"U","MEAN_MOTION":15.20967311,"ECCENTRICITY":0.0001909,"INCLINATION":97.4172,"RA_OF_ASC_NODE":261.8757,"ARG_OF_PERICENTER":193.3764,"MEAN_ANOMALY":166.7421,"EPHEMERIS_TYPE":0,"NORAD_CAT_ID":66724,"ELEMENT_SET_NO":999,"REV_AT_EPOCH":3276,"BSTAR":0.00024188,"MEAN_MOTION_DOT":0.0000529,"MEAN_MOTION_DDOT":0},{"OBJECT_NAME":"FLOCK 4H-22","OBJECT_ID":"2025-276BM","EPOCH":"2026-07-07T10:54:17.466048","CLASSIFICATION_TYPE":"U","MEAN_MOTION":15.2045201,"ECCENTRICITY":0.0001533,"INCLINATION":97.4161,"RA_OF_ASC_NODE":261.6346,"ARG_OF_PERICENTER":350.5487,"MEAN_ANOMALY":9.5719,"EPHEMERIS_TYPE":0,"NORAD_CAT_ID":66725,"ELEMENT_SET_NO":999,"REV_AT_EPOCH":3350,"BSTAR":0.00022409,"MEAN_MOTION_DOT":0.00004822,"MEAN_MOTION_DDOT":0},{"OBJECT_NAME":"FLOCK 4H-23","OBJECT_ID":"2025-276BN","EPOCH":"2026-07-07T10:33:25.613856","CLASSIFICATION_TYPE":"U","MEAN_MOTION":15.20004602,"ECCENTRICITY":0.000282,"INCLINATION":97.4228,"RA_OF_ASC_NODE":261.7027,"ARG_OF_PERICENTER":287.9382,"MEAN_ANOMALY":72.1545,"EPHEMERIS_TYPE":0,"NORAD_CAT_ID":66726,"ELEMENT_SET_NO":999,"REV_AT_EPOCH":3349,"BSTAR":0.00022007,"MEAN_MOTION_DOT":0.00004673,"MEAN_MOTION_DDOT":0},{"OBJECT_NAME":"FLOCK 4H-24","OBJECT_ID":"2025-276BP","EPOCH":"2026-07-07T03:53:09.419712","CLASSIFICATION_TYPE":"U","MEAN_MOTION":15.20109054,"ECCENTRICITY":0.0002538,"INCLINATION":97.4226,"RA_OF_ASC_NODE":261.4575,"ARG_OF_PERICENTER":313.9555,"MEAN_ANOMALY":46.147,"EPHEMERIS_TYPE":0,"NORAD_CAT_ID":66727,"ELEMENT_SET_NO":999,"REV_AT_EPOCH":3345,"BSTAR":0.00025801,"MEAN_MOTION_DOT":0.00005507,"MEAN_MOTION_DDOT":0},{"OBJECT_NAME":"FLOCK 4H-25","OBJECT_ID":"2025-276BQ","EPOCH":"2026-07-07T10:19:52.074048","CLASSIFICATION_TYPE":"U","MEAN_MOTION":15.2088047,"ECCENTRICITY":0.0001487,"INCLINATION":97.4182,"RA_OF_ASC_NODE":261.8845,"ARG_OF_PERICENTER":129.6522,"MEAN_ANOMALY":230.4845,"EPHEMERIS_TYPE":0,"NORAD_CAT_ID":66728,"ELEMENT_SET_NO":999,"REV_AT_EPOCH":3279,"BSTAR":0.00019679,"MEAN_MOTION_DOT":0.00004279,"MEAN_MOTION_DDOT":0},{"OBJECT_NAME":"FLOCK 4H-26","OBJECT_ID":"2025-276BR","EPOCH":"2026-07-07T12:33:14.263200","CLASSIFICATION_TYPE":"U","MEAN_MOTION":15.19837872,"ECCENTRICITY":0.0003256,"INCLINATION":97.418,"RA_OF_ASC_NODE":261.6027,"ARG_OF_PERICENTER":306.1206,"MEAN_ANOMALY":53.9728,"EPHEMERIS_TYPE":0,"NORAD_CAT_ID":66729,"ELEMENT_SET_NO":999,"REV_AT_EPOCH":3350,"BSTAR":0.00019016,"MEAN_MOTION_DOT":0.00004009,"MEAN_MOTION_DDOT":0},{"OBJECT_NAME":"FLOCK 4H-27","OBJECT_ID":"2025-276BS","EPOCH":"2026-07-06T23:59:22.931808","CLASSIFICATION_TYPE":"U","MEAN_MOTION":15.20698974,"ECCENTRICITY":0.0001179,"INCLINATION":97.4157,"RA_OF_ASC_NODE":261.3183,"ARG_OF_PERICENTER":121.8444,"MEAN_ANOMALY":238.2906,"EPHEMERIS_TYPE":0,"NORAD_CAT_ID":66730,"ELEMENT_SET_NO":999,"REV_AT_EPOCH":3344,"BSTAR":0.00024056,"MEAN_MOTION_DOT":0.00005219,"MEAN_MOTION_DDOT":0},{"OBJECT_NAME":"FLOCK 4H-29","OBJECT_ID":"2025-276BU","EPOCH":"2026-07-07T04:10:46.922016","CLASSIFICATION_TYPE":"U","MEAN_MOTION":15.19973391,"ECCENTRICITY":0.0002083,"INCLINATION":97.4158,"RA_OF_ASC_NODE":261.2426,"ARG_OF_PERICENTER":336.0314,"MEAN_ANOMALY":24.0824,"EPHEMERIS_TYPE":0,"NORAD_CAT_ID":66732,"ELEMENT_SET_NO":999,"REV_AT_EPOCH":3345,"BSTAR":0.00022845,"MEAN_MOTION_DOT":0.00004849,"MEAN_MOTION_DDOT":0},{"OBJECT_NAME":"FLOCK 4H-30","OBJECT_ID":"2025-276BV","EPOCH":"2026-07-07T10:19:13.332288","CLASSIFICATION_TYPE":"U","MEAN_MOTION":15.20099322,"ECCENTRICITY":0.0002796,"INCLINATION":97.4221,"RA_OF_ASC_NODE":261.6937,"ARG_OF_PERICENTER":309.6398,"MEAN_ANOMALY":50.4591,"EPHEMERIS_TYPE":0,"NORAD_CAT_ID":66733,"ELEMENT_SET_NO":999,"REV_AT_EPOCH":3349,"BSTAR":0.0002391,"MEAN_MOTION_DOT":0.00005097,"MEAN_MOTION_DDOT":0},{"OBJECT_NAME":"FLOCK 4H-31","OBJECT_ID":"2025-276BW","EPOCH":"2026-07-06T17:24:56.003616","CLASSIFICATION_TYPE":"U","MEAN_MOTION":15.19871272,"ECCENTRICITY":0.0002419,"INCLINATION":97.4158,"RA_OF_ASC_NODE":260.7702,"ARG_OF_PERICENTER":329.8198,"MEAN_ANOMALY":30.2898,"EPHEMERIS_TYPE":0,"NORAD_CAT_ID":66734,"ELEMENT_SET_NO":999,"REV_AT_EPOCH":3338,"BSTAR":0.00022934,"MEAN_MOTION_DOT":0.00004853,"MEAN_MOTION_DDOT":0},{"OBJECT_NAME":"FLOCK 4H-32","OBJECT_ID":"2025-276BX","EPOCH":"2026-07-07T10:31:15.047040","CLASSIFICATION_TYPE":"U","MEAN_MOTION":15.1999659,"ECCENTRICITY":0.0003083,"INCLINATION":97.4212,"RA_OF_ASC_NODE":261.6596,"ARG_OF_PERICENTER":304.7988,"MEAN_ANOMALY":55.2956,"EPHEMERIS_TYPE":0,"NORAD_CAT_ID":66735,"ELEMENT_SET_NO":999,"REV_AT_EPOCH":3349,"BSTAR":0.00021111,"MEAN_MOTION_DOT":0.00004479,"MEAN_MOTION_DDOT":0}]}
